{
    "links": {
        "self": "http://www.neowsapp.com/rest/v1/neo/3727175?api_key=iIulBulltgU6a56xZRHN4H3l9WmuAYTsLGpBGhQ2"
    },
    "id": "3727175",
    "neo_reference_id": "3727175",
    "name": "(2015 RB36)",
    "designation": "2015 RB36",
    "nasa_jpl_url": "http://ssd.jpl.nasa.gov/sbdb.cgi?sstr=3727175",
    "absolute_magnitude_h": 25.1,
    "estimated_diameter": {
        "kilometers": {
            "estimated_diameter_min": 0.0253837029,
            "estimated_diameter_max": 0.0567596853
        },
        "meters": {
            "estimated_diameter_min": 25.3837029364,
            "estimated_diameter_max": 56.7596852866
        },
        "miles": {
            "estimated_diameter_min": 0.0157726969,
            "estimated_diameter_max": 0.0352688224
        },
        "feet": {
            "estimated_diameter_min": 83.279867942,
            "estimated_diameter_max": 186.2194458756
        }
    },
    "is_potentially_hazardous_asteroid": false,
    "close_approach_data": [
        {
            "close_approach_date": "2015-08-18",
            "close_approach_date_full": "2015-Aug-18 04:40",
            "epoch_date_close_approach": 1439872800000,
            "relative_velocity": {
                "kilometers_per_second": "5.2362939304",
                "kilometers_per_hour": "18850.6581494321",
                "miles_per_hour": "11713.0658929069"
            },
            "miss_distance": {
                "astronomical": "0.1297407402",
                "lunar": "50.4691479378",
                "kilometers": "19408938.386143374",
                "miles": "12060155.0763276012"
            },
            "orbiting_body": "Earth"
        }
    ],
    "orbital_data": {
        "orbit_id": "6",
        "orbit_determination_date": "2017-04-06 08:32:06",
        "first_observation_date": "2015-09-09",
        "last_observation_date": "2015-09-17",
        "data_arc_in_days": 8,
        "observations_used": 22,
        "orbit_uncertainty": "9",
        "minimum_orbit_intersection": ".129732",
        "jupiter_tisserand_invariant": "3.523",
        "epoch_osculation": "2457276.5",
        "eccentricity": ".4783764694010452",
        "semi_major_axis": "2.176070589542633",
        "inclination": "4.992356566192061",
        "ascending_node_longitude": "170.883659893106",
        "orbital_period": "1172.486621255975",
        "perihelion_distance": "1.135089623749777",
        "perihelion_argument": "151.4977493854639",
        "aphelion_distance": "3.217051555335488",
        "perihelion_time": "2457250.220951138365",
        "mean_anomaly": "8.068712613585731",
        "mean_motion": ".3070397507942272",
        "equinox": "J2000",
        "orbit_class": {
            "orbit_class_type": "AMO",
            "orbit_class_description": "Near-Earth asteroid orbits similar to that of 1221 Amor",
            "orbit_class_range": "1.017 AU < q (perihelion) < 1.3 AU"
        }
    },
    "is_sentry_object": false
}